{
  "type": "FeatureCollection",
  "features": [
    {
      "type": "Feature",
      "properties": {
        "norad_id": 34121,
        "name": "COSMOS 2251 DEB",
        "group": "cosmos-2251-debris",
        "lat": 10.116593953514094,
        "lon": -78.05727115670594,
        "alt_km": 1059.413553454474,
        "timestamp": "2025-12-08T05:48:09.427419+00:00",
        "meta_object_name": "COSMOS 2251 DEB",
        "meta_object_id": "1993-036KS",
        "meta_epoch": "2025-12-07T19:11:12.802272",
        "meta_mean_motion": 13.91903838,
        "meta_eccentricity": 0.02400031,
        "meta_inclination": 73.993,
        "meta_ra_of_asc_node": 105.6362,
        "meta_arg_of_pericenter": 312.1388,
        "meta_mean_anomaly": 163.3837,
        "meta_ephemeris_type": 0,
        "meta_classification_type": "U",
        "meta_norad_cat_id": 34121,
        "meta_element_set_no": 999,
        "meta_rev_at_epoch": 85056,
        "meta_bstar": 0.0017689349,
        "meta_mean_motion_dot": 2.827e-05,
        "meta_mean_motion_ddot": 0,
        "tle_line1": "1 34121U 93036KS  25341.79945373  .00002827  00000+0  17689-2 0  9995",
        "tle_line2": "2 34121  73.9930 105.6362 0240003 312.1388 163.3837 13.91903838850562"
      },
      "geometry": {
        "type": "Point",
        "coordinates": [
          -78.05727115670594,
          10.116593953514094
        ]
      }
    },
    {
      "type": "Feature",
      "properties": {
        "norad_id": 34122,
        "name": "COSMOS 2251 DEB",
        "group": "cosmos-2251-debris",
        "lat": -40.046797237432145,
        "lon": 113.36547231899186,
        "alt_km": 660.1148994958139,
        "timestamp": "2025-12-08T05:48:09.427430+00:00",
        "meta_object_name": "COSMOS 2251 DEB",
        "meta_object_id": "1993-036KT",
        "meta_epoch": "2025-12-07T20:50:37.758912",
        "meta_mean_motion": 14.64955919,
        "meta_eccentricity": 0.00840543,
        "meta_inclination": 74.036,
        "meta_ra_of_asc_node": 128.0049,
        "meta_arg_of_pericenter": 26.263,
        "meta_mean_anomaly": 124.8783,
        "meta_ephemeris_type": 0,
        "meta_classification_type": "U",
        "meta_norad_cat_id": 34122,
        "meta_element_set_no": 999,
        "meta_rev_at_epoch": 88613,
        "meta_bstar": 0.0019219307,
        "meta_mean_motion_dot": 0.00010823,
        "meta_mean_motion_ddot": 0,
        "tle_line1": "1 34122U 93036KT  25341.86849258  .00010823  00000+0  19219-2 0  9995",
        "tle_line2": "2 34122  74.0360 128.0049 0084054  26.2630 124.8783 14.64955919886130"
      },
      "geometry": {
        "type": "Point",
        "coordinates": [
          113.36547231899186,
          -40.046797237432145
        ]
      }
    },
    {
      "type": "Feature",
      "properties": {
        "norad_id": 34127,
        "name": "COSMOS 2251 DEB",
        "group": "cosmos-2251-debris",
        "lat": 49.46158324001381,
        "lon": 71.35549677743894,
        "alt_km": 858.7115895183033,
        "timestamp": "2025-12-08T05:48:09.427440+00:00",
        "meta_object_name": "COSMOS 2251 DEB",
        "meta_object_id": "1993-036KY",
        "meta_epoch": "2025-12-07T15:02:27.050208",
        "meta_mean_motion": 14.3146565,
        "meta_eccentricity": 0.01147491,
        "meta_inclination": 74.179,
        "meta_ra_of_asc_node": 53.1039,
        "meta_arg_of_pericenter": 254.2947,
        "meta_mean_anomaly": 229.1039,
        "meta_ephemeris_type": 0,
        "meta_classification_type": "U",
        "meta_norad_cat_id": 34127,
        "meta_element_set_no": 999,
        "meta_rev_at_epoch": 86698,
        "meta_bstar": 0.0033089786,
        "meta_mean_motion_dot": 9.431e-05,
        "meta_mean_motion_ddot": 0,
        "tle_line1": "1 34127U 93036KY  25341.62670197  .00009431  00000+0  33090-2 0  9994",
        "tle_line2": "2 34127  74.1790  53.1039 0114749 254.2947 229.1039 14.31465650866985"
      },
      "geometry": {
        "type": "Point",
        "coordinates": [
          71.35549677743894,
          49.46158324001381
        ]
      }
    },
    {
      "type": "Feature",
      "properties": {
        "norad_id": 34128,
        "name": "COSMOS 2251 DEB",
        "group": "cosmos-2251-debris",
        "lat": -32.439495743478055,
        "lon": 136.40713473918825,
        "alt_km": 586.5767389086441,
        "timestamp": "2025-12-08T05:48:09.427449+00:00",
        "meta_object_name": "COSMOS 2251 DEB",
        "meta_object_id": "1993-036KZ",
        "meta_epoch": "2025-12-07T20:57:32.737248",
        "meta_mean_motion": 15.00812839,
        "meta_eccentricity": 0.00262046,
        "meta_inclination": 74.0008,
        "meta_ra_of_asc_node": 306.6506,
        "meta_arg_of_pericenter": 59.5342,
        "meta_mean_anomaly": 324.1114,
        "meta_ephemeris_type": 0,
        "meta_classification_type": "U",
        "meta_norad_cat_id": 34128,
        "meta_element_set_no": 999,
        "meta_rev_at_epoch": 89094,
        "meta_bstar": 0.0033247848,
        "meta_mean_motion_dot": 0.00042771,
        "meta_mean_motion_ddot": 0,
        "tle_line1": "1 34128U 93036KZ  25341.87329557  .00042771  00000+0  33248-2 0  9992",
        "tle_line2": "2 34128  74.0008 306.6506 0026204  59.5342 324.1114 15.00812839890940"
      },
      "geometry": {
        "type": "Point",
        "coordinates": [
          136.40713473918825,
          -32.439495743478055
        ]
      }
    },
    {
      "type": "Feature",
      "properties": {
        "norad_id": 34129,
        "name": "COSMOS 2251 DEB",
        "group": "cosmos-2251-debris",
        "lat": -0.8774587827095321,
        "lon": 168.57855435076854,
        "alt_km": 653.5397109076639,
        "timestamp": "2025-12-08T05:48:09.427460+00:00",
        "meta_object_name": "COSMOS 2251 DEB",
        "meta_object_id": "1993-036LA",
        "meta_epoch": "2025-12-07T17:35:57.700608",
        "meta_mean_motion": 14.7560576,
        "meta_eccentricity": 0.00327555,
        "meta_inclination": 74.035,
        "meta_ra_of_asc_node": 349.3216,
        "meta_arg_of_pericenter": 72.4959,
        "meta_mean_anomaly": 287.9791,
        "meta_ephemeris_type": 0,
        "meta_classification_type": "U",
        "meta_norad_cat_id": 34129,
        "meta_element_set_no": 999,
        "meta_rev_at_epoch": 61224,
        "meta_bstar": 0.0019974309,
        "meta_mean_motion_dot": 0.00013743,
        "meta_mean_motion_ddot": 0,
        "tle_line1": "1 34129U 93036LA  25341.73330672  .00013743  00000+0  19974-2 0  9995",
        "tle_line2": "2 34129  74.0350 349.3216 0032755  72.4959 287.9791 14.75605760612245"
      },
      "geometry": {
        "type": "Point",
        "coordinates": [
          168.57855435076854,
          -0.8774587827095321
        ]
      }
    },
    {
      "type": "Feature",
      "properties": {
        "norad_id": 34136,
        "name": "COSMOS 2251 DEB",
        "group": "cosmos-2251-debris",
        "lat": -73.2654198068674,
        "lon": -56.13428598210819,
        "alt_km": 634.9287876089775,
        "timestamp": "2025-12-08T05:48:09.427470+00:00",
        "meta_object_name": "COSMOS 2251 DEB",
        "meta_object_id": "1993-036LH",
        "meta_epoch": "2025-12-07T22:55:16.568832",
        "meta_mean_motion": 14.8002539,
        "meta_eccentricity": 0.00861708,
        "meta_inclination": 74.0212,
        "meta_ra_of_asc_node": 52.0688,
        "meta_arg_of_pericenter": 176.3225,
        "meta_mean_anomaly": 0.6254,
        "meta_ephemeris_type": 0,
        "meta_classification_type": "U",
        "meta_norad_cat_id": 34136,
        "meta_element_set_no": 999,
        "meta_rev_at_epoch": 89939,
        "meta_bstar": 0.00070937283,
        "meta_mean_motion_dot": 5.689e-05,
        "meta_mean_motion_ddot": 0,
        "tle_line1": "1 34136U 93036LH  25341.95505288  .00005689  00000+0  70937-3 0  9991",
        "tle_line2": "2 34136  74.0212  52.0688 0086170 176.3225   0.6254 14.80025390899399"
      },
      "geometry": {
        "type": "Point",
        "coordinates": [
          -56.13428598210819,
          -73.2654198068674
        ]
      }
    },
    {
      "type": "Feature",
      "properties": {
        "norad_id": 34139,
        "name": "COSMOS 2251 DEB",
        "group": "cosmos-2251-debris",
        "lat": -33.10335316977101,
        "lon": -108.1244982651727,
        "alt_km": 672.5654010117742,
        "timestamp": "2025-12-08T05:48:09.427480+00:00",
        "meta_object_name": "COSMOS 2251 DEB",
        "meta_object_id": "1993-036LL",
        "meta_epoch": "2025-12-07T22:03:29.543616",
        "meta_mean_motion": 14.58957842,
        "meta_eccentricity": 0.00425596,
        "meta_inclination": 74.0315,
        "meta_ra_of_asc_node": 263.2496,
        "meta_arg_of_pericenter": 335.0784,
        "meta_mean_anomaly": 96.3572,
        "meta_ephemeris_type": 0,
        "meta_classification_type": "U",
        "meta_norad_cat_id": 34139,
        "meta_element_set_no": 999,
        "meta_rev_at_epoch": 88079,
        "meta_bstar": 0.0020491103,
        "meta_mean_motion_dot": 9.718e-05,
        "meta_mean_motion_ddot": 0,
        "tle_line1": "1 34139U 93036LL  25341.91909194  .00009718  00000+0  20491-2 0  9990",
        "tle_line2": "2 34139  74.0315 263.2496 0042559 335.0784  96.3572 14.58957842880796"
      },
      "geometry": {
        "type": "Point",
        "coordinates": [
          -108.1244982651727,
          -33.10335316977101
        ]
      }
    }
  ]
}